2025-09-15 19h11 utc +1
Board: Pimoroni Pico LiPo 2XL W 
Connected hardware: Lolin 2.13inch 3-Color e-Paper display, 250 x 122 pixels

Micropython script: metar_mqtt_epd.py 
Called from main.py

PuTTY session serial output:

global(): Preparing ePD...
global(): ePD prepared.
global(): PUBLISHER_ID = PL2XLW
global(): broker = 192.168._.___
global(): port = 1883
global(): globals set.

Connecting to _________.....
IP-address: 192.168._.___
WiFi MAC-address: __:__:__:__:__
Unix time: 1757958491
setup(): trying to mqtt.connect()
setup(): Clearing ePD buffers...
setup(): Creating FrameBuffer for red text...
setup(): Drawing intro screen...
setup(): Setup complete.
main(): Starting non-blocking METAR loop...
main(): MQTT message send interval: 1800 seconds
sync_time_fm_ntp(): ✅ Time synced: 2025-09-15T17:48:37 UTC
main(): ISO 8601 time: 2025-09-15T18:48:37+01:00
ck_for_next_metar(): ⚠️ uxTime_rcvd is zero! Need to fetch METAR first!
main(): Time to fetch METAR!
fetchMetar(): start to send request
fetchMetar(): Raw response (first 30 char's): "{"status":true,"credits":1190,"
fetchMetar(): wx observed (unix time): 1757957400 = 2025-09-15T17:30:00+00:00 UTC
fetchMetar(): my_status = True
fetchMetar(): my_credits = 1190
fetchMetar(): wx observed = 1757957400
fetchMetar(): metar = "METAR LPPT 151730Z 32015KT 9999 FEW025 23/17 Q1020"
fetchMetar(): metarDayAndHour: 151730 Z
fetchMetar(): metarHourNextStr = 151910
fetchMetar(): 🕒 Next METAR hour at: 19h10 local
main(): Time to publish MQTT message!
composePayload(): PUBLISHER_ID = PL2XLW
send_msg(): Topic length: 19
send_msg(): length written: 163
send_msg(): MQTT message ID: 1757958517
send_msg(): in IS8601 = 2025-09-15T17:48:37+00:00 UTC
send_msg(): Topic = "b'weather/PL2XLW/LPPT'"
send_msg(): msg = b'{"metar": {"raw": "METAR LPPT 151730Z 32015KT 9999 FEW025 23/17 Q1020"},'
        b' "hd": {"de": "Ext", "sc": "meas", "vt": "s", "t": 1757957400, "dc": "wx", "ow": "PL2XLW"}}'
send_msg(): ✅ MQTT message nr:   1 sent
-------------------------------------------------------
main(): Time to draw METAR on ePD!
drawMetarOnEPD(): Drawing METAR on EPD...
drawMetarOnEPD(): ✅ METAR drawn on EPD.
main(): Waiting for next METAR update...
main(): 📍 next_metar_unix_time = 1757959800 = 2025-09-15T19:10:00+01:00
sync_time_fm_ntp(): ✅ Time synced: 2025-09-15T18:03:37 UTC
main(): ISO 8601 time: 2025-09-15T19:03:37+01:00
🛫 Going to send METAR data message...
main(): Time to fetch METAR!
fetchMetar(): start to send request
fetchMetar(): Raw response (first 30 char's): "{"status":true,"credits":1189,"
fetchMetar(): wx observed (unix time): 1757959200 = 2025-09-15T18:00:00+00:00 UTC
fetchMetar(): my_status = True
fetchMetar(): my_credits = 1189
fetchMetar(): wx observed = 1757959200
fetchMetar(): metar = "METAR LPPT 151800Z 32015KT 9999 FEW022 22/16 Q1020"
fetchMetar(): metarDayAndHour: 151800 Z
fetchMetar(): metarHourNextStr = 151940
fetchMetar(): 🕒 Next METAR hour at: 19h40 local
main(): Time to publish MQTT message!
composePayload(): PUBLISHER_ID = PL2XLW
send_msg(): Topic length: 19
send_msg(): length written: 163
send_msg(): MQTT message ID: 1757959417
send_msg(): in IS8601 = 2025-09-15T18:03:37+00:00 UTC
send_msg(): Topic = "b'weather/PL2XLW/LPPT'"
send_msg(): msg = b'{"metar": {"raw": "METAR LPPT 151800Z 32015KT 9999 FEW022 22/16 Q1020"},'
        b' "hd": {"de": "Ext", "sc": "meas", "vt": "s", "t": 1757959200, "dc": "wx", "ow": "PL2XLW"}}'
send_msg(): ✅ MQTT message nr:   2 sent
-------------------------------------------------------
main(): Time to draw METAR on ePD!
drawMetarOnEPD(): Drawing METAR on EPD...
drawMetarOnEPD(): ✅ METAR drawn on EPD.
main(): Waiting for next METAR update...
main(): 📍 next_metar_unix_time = 1757961600 = 2025-09-15T19:40:00+01:00

